STARLINK-2022           
1 47643U 21012Z   24188.49836042  .00001461  00000+0  11699-3 0  9999
2 47643  53.0541 275.3626 0001320  89.5012 270.6129 15.06393337187627
